[{"OBJECT_NAME":"ONEWEB-0121","OBJECT_ID":"2020-100K","EPOCH":"2025-12-03T05:04:56.208288","MEAN_MOTION":13.12444836,"ECCENTRICITY":0.0001895,"INCLINATION":87.8953,"RA_OF_ASC_NODE":29.5839,"ARG_OF_PERICENTER":97.8662,"MEAN_ANOMALY":262.2682,"EPHEMERIS_TYPE":0,"CLASSIFICATION_TYPE":"U","NORAD_CAT_ID":47267,"ELEMENT_SET_NO":999,"REV_AT_EPOCH":23893,"BSTAR":0.0011203965,"MEAN_MOTION_DOT":4.16e-6,"MEAN_MOTION_DDOT":0},{"OBJECT_NAME":"ONEWEB-0122","OBJECT_ID":"2020-100L","EPOCH":"2025-12-03T04:57:44.181504","MEAN_MOTION":13.12444805,"ECCENTRICITY":0.00018129,"INCLINATION":87.8952,"RA_OF_ASC_NODE":29.5875,"ARG_OF_PERICENTER":93.6812,"MEAN_ANOMALY":266.4524,"EPHEMERIS_TYPE":0,"CLASSIFICATION_TYPE":"U","NORAD_CAT_ID":47268,"ELEMENT_SET_NO":999,"REV_AT_EPOCH":23884,"BSTAR":0.0010108026,"MEAN_MOTION_DOT":3.76e-6,"MEAN_MOTION_DDOT":0},{"OBJECT_NAME":"ONEWEB-0123","OBJECT_ID":"2020-100M","EPOCH":"2025-12-03T04:50:55.782528","MEAN_MOTION":13.12443968,"ECCENTRICITY":0.00016341,"INCLINATION":87.8942,"RA_OF_ASC_NODE":29.6155,"ARG_OF_PERICENTER":102.0739,"MEAN_ANOMALY":258.0573,"EPHEMERIS_TYPE":0,"CLASSIFICATION_TYPE":"U","NORAD_CAT_ID":47269,"ELEMENT_SET_NO":999,"REV_AT_EPOCH":23898,"BSTAR":0.00035665148,"MEAN_MOTION_DOT":1.41e-6,"MEAN_MOTION_DDOT":0},{"OBJECT_NAME":"ONEWEB-0124","OBJECT_ID":"2020-100N","EPOCH":"2025-12-03T04:34:33.918240","MEAN_MOTION":13.12444451,"ECCENTRICITY":0.00018673,"INCLINATION":87.8944,"RA_OF_ASC_NODE":29.6219,"ARG_OF_PERICENTER":103.2285,"MEAN_ANOMALY":256.9052,"EPHEMERIS_TYPE":0,"CLASSIFICATION_TYPE":"U","NORAD_CAT_ID":47270,"ELEMENT_SET_NO":999,"REV_AT_EPOCH":23886,"BSTAR":-0.00057145004,"MEAN_MOTION_DOT":-1.93e-6,"MEAN_MOTION_DDOT":0},{"OBJECT_NAME":"ONEWEB-0125","OBJECT_ID":"2020-100P","EPOCH":"2025-12-03T04:01:51.380256","MEAN_MOTION":13.12442932,"ECCENTRICITY":0.00016978,"INCLINATION":87.8951,"RA_OF_ASC_NODE":29.5888,"ARG_OF_PERICENTER":108.0084,"MEAN_ANOMALY":252.1229,"EPHEMERIS_TYPE":0,"CLASSIFICATION_TYPE":"U","NORAD_CAT_ID":47271,"ELEMENT_SET_NO":999,"REV_AT_EPOCH":23892,"BSTAR":-0.00065063496,"MEAN_MOTION_DOT":-2.21e-6,"MEAN_MOTION_DDOT":0},{"OBJECT_NAME":"ONEWEB-0126","OBJECT_ID":"2020-100Q","EPOCH":"2025-12-03T04:32:25.895040","MEAN_MOTION":13.12444336,"ECCENTRICITY":0.0001641,"INCLINATION":87.8952,"RA_OF_ASC_NODE":29.6079,"ARG_OF_PERICENTER":96.4341,"MEAN_ANOMALY":263.6974,"EPHEMERIS_TYPE":0,"CLASSIFICATION_TYPE":"U","NORAD_CAT_ID":47272,"ELEMENT_SET_NO":999,"REV_AT_EPOCH":23899,"BSTAR":-0.00063370878,"MEAN_MOTION_DOT":-2.15e-6,"MEAN_MOTION_DDOT":0},{"OBJECT_NAME":"ONEWEB-0127","OBJECT_ID":"2020-100R","EPOCH":"2025-12-03T03:43:11.326944","MEAN_MOTION":13.12442507,"ECCENTRICITY":0.00016817,"INCLINATION":87.8945,"RA_OF_ASC_NODE":29.6255,"ARG_OF_PERICENTER":93.5002,"MEAN_ANOMALY":266.6319,"EPHEMERIS_TYPE":0,"CLASSIFICATION_TYPE":"U","NORAD_CAT_ID":47273,"ELEMENT_SET_NO":999,"REV_AT_EPOCH":23901,"BSTAR":0.00067321809,"MEAN_MOTION_DOT":2.55e-6,"MEAN_MOTION_DDOT":0},{"OBJECT_NAME":"ONEWEB-0128","OBJECT_ID":"2020-100S","EPOCH":"2025-12-03T04:15:52.428960","MEAN_MOTION":13.12443598,"ECCENTRICITY":0.00019392,"INCLINATION":87.8943,"RA_OF_ASC_NODE":29.6387,"ARG_OF_PERICENTER":93.5247,"MEAN_ANOMALY":266.6103,"EPHEMERIS_TYPE":0,"CLASSIFICATION_TYPE":"U","NORAD_CAT_ID":47274,"ELEMENT_SET_NO":999,"REV_AT_EPOCH":23903,"BSTAR":-0.00099873139,"MEAN_MOTION_DOT":-3.47e-6,"MEAN_MOTION_DDOT":0},{"OBJECT_NAME":"ONEWEB-0129","OBJECT_ID":"2020-100T","EPOCH":"2025-12-03T03:45:30.551904","MEAN_MOTION":13.12442035,"ECCENTRICITY":0.00013206,"INCLINATION":87.8952,"RA_OF_ASC_NODE":29.5952,"ARG_OF_PERICENTER":56.2872,"MEAN_ANOMALY":303.8382,"EPHEMERIS_TYPE":0,"CLASSIFICATION_TYPE":"U","NORAD_CAT_ID":47275,"ELEMENT_SET_NO":999,"REV_AT_EPOCH":23896,"BSTAR":0.00038273185,"MEAN_MOTION_DOT":1.5e-6,"MEAN_MOTION_DDOT":0},{"OBJECT_NAME":"ONEWEB-0130","OBJECT_ID":"2020-100U","EPOCH":"2025-12-03T04:25:13.387872","MEAN_MOTION":13.12443839,"ECCENTRICITY":0.00018216,"INCLINATION":87.8952,"RA_OF_ASC_NODE":29.5847,"ARG_OF_PERICENTER":95.086,"MEAN_ANOMALY":265.0476,"EPHEMERIS_TYPE":0,"CLASSIFICATION_TYPE":"U","NORAD_CAT_ID":47276,"ELEMENT_SET_NO":999,"REV_AT_EPOCH":23893,"BSTAR":-0.00083421287,"MEAN_MOTION_DOT":-2.87e-6,"MEAN_MOTION_DDOT":0},{"OBJECT_NAME":"ONEWEB-0131","OBJECT_ID":"2020-100V","EPOCH":"2025-12-03T04:20:33.050976","MEAN_MOTION":13.12443673,"ECCENTRICITY":0.00017896,"INCLINATION":87.8952,"RA_OF_ASC_NODE":29.6158,"ARG_OF_PERICENTER":98.8362,"MEAN_ANOMALY":261.297,"EPHEMERIS_TYPE":0,"CLASSIFICATION_TYPE":"U","NORAD_CAT_ID":47277,"ELEMENT_SET_NO":999,"REV_AT_EPOCH":23897,"BSTAR":-0.0011122144,"MEAN_MOTION_DOT":-3.87e-6,"MEAN_MOTION_DDOT":0},{"OBJECT_NAME":"ONEWEB-0132","OBJECT_ID":"2020-100W","EPOCH":"2025-12-03T06:52:23.201760","MEAN_MOTION":13.12444129,"ECCENTRICITY":0.00018243,"INCLINATION":87.8952,"RA_OF_ASC_NODE":29.5963,"ARG_OF_PERICENTER":98.1363,"MEAN_ANOMALY":261.9972,"EPHEMERIS_TYPE":0,"CLASSIFICATION_TYPE":"U","NORAD_CAT_ID":47278,"ELEMENT_SET_NO":999,"REV_AT_EPOCH":23888,"BSTAR":0.0010263114,"MEAN_MOTION_DOT":3.82e-6,"MEAN_MOTION_DDOT":0},{"OBJECT_NAME":"ONEWEB-0133","OBJECT_ID":"2020-100X","EPOCH":"2025-12-03T05:25:45.576480","MEAN_MOTION":13.12443637,"ECCENTRICITY":0.00019083,"INCLINATION":87.8946,"RA_OF_ASC_NODE":29.5706,"ARG_OF_PERICENTER":97.1592,"MEAN_ANOMALY":262.9753,"EPHEMERIS_TYPE":0,"CLASSIFICATION_TYPE":"U","NORAD_CAT_ID":47279,"ELEMENT_SET_NO":999,"REV_AT_EPOCH":23903,"BSTAR":0.0011274489,"MEAN_MOTION_DOT":4.18e-6,"MEAN_MOTION_DDOT":0},{"OBJECT_NAME":"ONEWEB-0134","OBJECT_ID":"2020-100Y","EPOCH":"2025-12-03T04:41:34.680192","MEAN_MOTION":13.12445063,"ECCENTRICITY":0.00018688,"INCLINATION":87.8952,"RA_OF_ASC_NODE":29.5712,"ARG_OF_PERICENTER":90.7609,"MEAN_ANOMALY":269.3733,"EPHEMERIS_TYPE":0,"CLASSIFICATION_TYPE":"U","NORAD_CAT_ID":47280,"ELEMENT_SET_NO":999,"REV_AT_EPOCH":23900,"BSTAR":-0.00017545746,"MEAN_MOTION_DOT":-5.0e-7,"MEAN_MOTION_DDOT":0},{"OBJECT_NAME":"ONEWEB-0135","OBJECT_ID":"2020-100Z","EPOCH":"2025-12-03T03:59:30.848928","MEAN_MOTION":13.12440327,"ECCENTRICITY":0.00020261,"INCLINATION":87.8947,"RA_OF_ASC_NODE":29.6168,"ARG_OF_PERICENTER":89.5937,"MEAN_ANOMALY":270.5423,"EPHEMERIS_TYPE":0,"CLASSIFICATION_TYPE":"U","NORAD_CAT_ID":47281,"ELEMENT_SET_NO":999,"REV_AT_EPOCH":23902,"BSTAR":-0.00014595431,"MEAN_MOTION_DOT":-4.0e-7,"MEAN_MOTION_DDOT":0},{"OBJECT_NAME":"ONEWEB-0136","OBJECT_ID":"2020-100AA","EPOCH":"2025-12-03T04:27:33.509664","MEAN_MOTION":13.12444142,"ECCENTRICITY":0.00018583,"INCLINATION":87.8952,"RA_OF_ASC_NODE":29.5823,"ARG_OF_PERICENTER":85.8878,"MEAN_ANOMALY":274.2463,"EPHEMERIS_TYPE":0,"CLASSIFICATION_TYPE":"U","NORAD_CAT_ID":47282,"ELEMENT_SET_NO":999,"REV_AT_EPOCH":23895,"BSTAR":-0.00095584319,"MEAN_MOTION_DOT":-3.31e-6,"MEAN_MOTION_DDOT":0}]
