ONEWEB-0121             
1 47267U 20100K   25337.21176167  .00000416  00000+0  11204-2 0  9990
2 47267  87.8953  29.5839 0001895  97.8662 262.2682 13.12444836238934
ONEWEB-0122             
1 47268U 20100L   25337.20676136  .00000376  00000+0  10108-2 0  9998
2 47268  87.8952  29.5875 0001812  93.6812 266.4524 13.12444805238841
ONEWEB-0123             
1 47269U 20100M   25337.20203452  .00000141  00000+0  35665-3 0  9992
2 47269  87.8942  29.6155 0001634 102.0739 258.0573 13.12443968238983
ONEWEB-0124             
1 47270U 20100N   25337.19067035 -.00000193  00000+0 -57145-3 0  9993
2 47270  87.8944  29.6219 0001867 103.2285 256.9052 13.12444451238869
ONEWEB-0125             
1 47271U 20100P   25337.16795579 -.00000221  00000+0 -65063-3 0  9992
2 47271  87.8951  29.5888 0001697 108.0084 252.1229 13.12442932238923
ONEWEB-0126             
1 47272U 20100Q   25337.18918860 -.00000215  00000+0 -63371-3 0  9998
2 47272  87.8952  29.6079 0001641  96.4341 263.6974 13.12444336238994
ONEWEB-0127             
1 47273U 20100R   25337.15499221  .00000255  00000+0  67322-3 0  9993
2 47273  87.8945  29.6255 0001681  93.5002 266.6319 13.12442507239017
ONEWEB-0128             
1 47274U 20100S   25337.17769015 -.00000347  00000+0 -99873-3 0  9997
2 47274  87.8943  29.6387 0001939  93.5247 266.6103 13.12443598239033
ONEWEB-0129             
1 47275U 20100T   25337.15660361  .00000150  00000+0  38273-3 0  9997
2 47275  87.8952  29.5952 0001320  56.2872 303.8382 13.12442035238964
ONEWEB-0130             
1 47276U 20100U   25337.18418273 -.00000287  00000+0 -83421-3 0  9992
2 47276  87.8952  29.5847 0001821  95.0860 265.0476 13.12443839238935
ONEWEB-0131             
1 47277U 20100V   25337.18093809 -.00000387  00000+0 -11122-2 0  9996
2 47277  87.8952  29.6158 0001789  98.8362 261.2970 13.12443673238970
ONEWEB-0132             
1 47278U 20100W   25337.28637965  .00000382  00000+0  10263-2 0  9993
2 47278  87.8952  29.5963 0001824  98.1363 261.9972 13.12444129238884
ONEWEB-0133             
1 47279U 20100X   25337.22622195  .00000418  00000+0  11274-2 0  9990
2 47279  87.8946  29.5706 0001908  97.1592 262.9753 13.12443637239038
ONEWEB-0134             
1 47280U 20100Y   25337.19554028 -.00000050  00000+0 -17546-3 0  9990
2 47280  87.8952  29.5712 0001868  90.7609 269.3733 13.12445063239008
ONEWEB-0135             
1 47281U 20100Z   25337.16632927 -.00000040  00000+0 -14595-3 0  9993
2 47281  87.8947  29.6168 0002026  89.5937 270.5423 13.12440327239026
ONEWEB-0136             
1 47282U 20100AA  25337.18580451 -.00000331  00000+0 -95584-3 0  9990
2 47282  87.8952  29.5823 0001858  85.8878 274.2463 13.12444142238950
